[{"OBJECT_NAME":"EUTELSAT 174A","OBJECT_ID":"2005-052A","EPOCH":"2026-04-26T18:50:38.568768","MEAN_MOTION":1.00272763,"ECCENTRICITY":0.000644,"INCLINATION":4.0918,"RA_OF_ASC_NODE":77.1405,"ARG_OF_PERICENTER":318.7915,"MEAN_ANOMALY":275.4962,"EPHEMERIS_TYPE":0,"CLASSIFICATION_TYPE":"U","NORAD_CAT_ID":28924,"ELEMENT_SET_NO":999,"REV_AT_EPOCH":5181,"BSTAR":0,"MEAN_MOTION_DOT":1.0e-8,"MEAN_MOTION_DDOT":0},{"OBJECT_NAME":"EUTELSAT 33F","OBJECT_ID":"2006-032A","EPOCH":"2026-04-26T20:34:09.690240","MEAN_MOTION":1.00274647,"ECCENTRICITY":0.0003545,"INCLINATION":1.5307,"RA_OF_ASC_NODE":82.772,"ARG_OF_PERICENTER":313.9157,"MEAN_ANOMALY":159.8171,"EPHEMERIS_TYPE":0,"CLASSIFICATION_TYPE":"U","NORAD_CAT_ID":29270,"ELEMENT_SET_NO":999,"REV_AT_EPOCH":4679,"BSTAR":0,"MEAN_MOTION_DOT":1.46e-6,"MEAN_MOTION_DDOT":0},{"OBJECT_NAME":"EUTELSAT HOTBIRD 13C","OBJECT_ID":"2008-065A","EPOCH":"2026-04-26T20:10:26.963904","MEAN_MOTION":1.0027003,"ECCENTRICITY":0.0004222,"INCLINATION":2.8205,"RA_OF_ASC_NODE":79.7701,"ARG_OF_PERICENTER":321.2596,"MEAN_ANOMALY":66.1342,"EPHEMERIS_TYPE":0,"CLASSIFICATION_TYPE":"U","NORAD_CAT_ID":33459,"ELEMENT_SET_NO":999,"REV_AT_EPOCH":4683,"BSTAR":0,"MEAN_MOTION_DOT":-2.91e-6,"MEAN_MOTION_DDOT":0},{"OBJECT_NAME":"EUTELSAT 36B","OBJECT_ID":"2009-065A","EPOCH":"2026-04-26T18:48:38.522880","MEAN_MOTION":1.00269849,"ECCENTRICITY":0.0005878,"INCLINATION":0.363,"RA_OF_ASC_NODE":79.8668,"ARG_OF_PERICENTER":314.7365,"MEAN_ANOMALY":152.8375,"EPHEMERIS_TYPE":0,"CLASSIFICATION_TYPE":"U","NORAD_CAT_ID":36101,"ELEMENT_SET_NO":999,"REV_AT_EPOCH":6019,"BSTAR":0,"MEAN_MOTION_DOT":1.01e-6,"MEAN_MOTION_DDOT":0},{"OBJECT_NAME":"EUTELSAT KA-SAT 9A","OBJECT_ID":"2010-069A","EPOCH":"2026-04-26T17:01:58.084320","MEAN_MOTION":1.00268489,"ECCENTRICITY":0.0004027,"INCLINATION":0.0611,"RA_OF_ASC_NODE":354.1089,"ARG_OF_PERICENTER":144.1294,"MEAN_ANOMALY":340.9833,"EPHEMERIS_TYPE":0,"CLASSIFICATION_TYPE":"U","NORAD_CAT_ID":37258,"ELEMENT_SET_NO":999,"REV_AT_EPOCH":4349,"BSTAR":0,"MEAN_MOTION_DOT":4.9e-7,"MEAN_MOTION_DDOT":0},{"OBJECT_NAME":"EUTELSAT 7 WEST A","OBJECT_ID":"2011-051A","EPOCH":"2026-04-26T19:47:38.565024","MEAN_MOTION":1.00271871,"ECCENTRICITY":0.0002591,"INCLINATION":0.0818,"RA_OF_ASC_NODE":37.2135,"ARG_OF_PERICENTER":64.323,"MEAN_ANOMALY":42.8801,"EPHEMERIS_TYPE":0,"CLASSIFICATION_TYPE":"U","NORAD_CAT_ID":37816,"ELEMENT_SET_NO":999,"REV_AT_EPOCH":5336,"BSTAR":0,"MEAN_MOTION_DOT":-7.2e-7,"MEAN_MOTION_DDOT":0},{"OBJECT_NAME":"EUTELSAT 16A","OBJECT_ID":"2011-057A","EPOCH":"2026-04-26T20:29:17.657376","MEAN_MOTION":1.0027085,"ECCENTRICITY":0.0005737,"INCLINATION":0.054,"RA_OF_ASC_NODE":7.6643,"ARG_OF_PERICENTER":33.6845,"MEAN_ANOMALY":136.8238,"EPHEMERIS_TYPE":0,"CLASSIFICATION_TYPE":"U","NORAD_CAT_ID":37836,"ELEMENT_SET_NO":999,"REV_AT_EPOCH":682,"BSTAR":0,"MEAN_MOTION_DOT":9.3e-7,"MEAN_MOTION_DDOT":0},{"OBJECT_NAME":"EUTELSAT 21B","OBJECT_ID":"2012-062B","EPOCH":"2026-04-26T20:30:55.000800","MEAN_MOTION":1.00270459,"ECCENTRICITY":0.0002924,"INCLINATION":0.0708,"RA_OF_ASC_NODE":357.7297,"ARG_OF_PERICENTER":37.6863,"MEAN_ANOMALY":148.7636,"EPHEMERIS_TYPE":0,"CLASSIFICATION_TYPE":"U","NORAD_CAT_ID":38992,"ELEMENT_SET_NO":999,"REV_AT_EPOCH":4931,"BSTAR":0,"MEAN_MOTION_DOT":1.18e-6,"MEAN_MOTION_DDOT":0},{"OBJECT_NAME":"EUTELSAT 70B","OBJECT_ID":"2012-069A","EPOCH":"2026-04-26T19:02:11.011200","MEAN_MOTION":1.00271522,"ECCENTRICITY":0.0005084,"INCLINATION":0.0702,"RA_OF_ASC_NODE":18.1397,"ARG_OF_PERICENTER":14.6036,"MEAN_ANOMALY":178.0764,"EPHEMERIS_TYPE":0,"CLASSIFICATION_TYPE":"U","NORAD_CAT_ID":39020,"ELEMENT_SET_NO":999,"REV_AT_EPOCH":4899,"BSTAR":0,"MEAN_MOTION_DOT":-5.5e-7,"MEAN_MOTION_DDOT":0},{"OBJECT_NAME":"EUTELSAT 117 WEST A","OBJECT_ID":"2013-012A","EPOCH":"2026-04-26T17:19:21.511200","MEAN_MOTION":1.00270773,"ECCENTRICITY":0.0002564,"INCLINATION":0.0187,"RA_OF_ASC_NODE":309.993,"ARG_OF_PERICENTER":73.1319,"MEAN_ANOMALY":334.6352,"EPHEMERIS_TYPE":0,"CLASSIFICATION_TYPE":"U","NORAD_CAT_ID":39122,"ELEMENT_SET_NO":999,"REV_AT_EPOCH":4791,"BSTAR":0,"MEAN_MOTION_DOT":-2.4e-7,"MEAN_MOTION_DDOT":0},{"OBJECT_NAME":"EUTELSAT 7B","OBJECT_ID":"2013-022A","EPOCH":"2026-04-26T20:26:47.895936","MEAN_MOTION":1.00271594,"ECCENTRICITY":0.0005913,"INCLINATION":0.0759,"RA_OF_ASC_NODE":21.7643,"ARG_OF_PERICENTER":356.7862,"MEAN_ANOMALY":149.9811,"EPHEMERIS_TYPE":0,"CLASSIFICATION_TYPE":"U","NORAD_CAT_ID":39163,"ELEMENT_SET_NO":999,"REV_AT_EPOCH":4743,"BSTAR":0,"MEAN_MOTION_DOT":3.7e-7,"MEAN_MOTION_DDOT":0},{"OBJECT_NAME":"EXPRESS-AT1","OBJECT_ID":"2014-010A","EPOCH":"2026-04-26T20:41:09.019680","MEAN_MOTION":1.0028896,"ECCENTRICITY":0.0001813,"INCLINATION":0.126,"RA_OF_ASC_NODE":84.1545,"ARG_OF_PERICENTER":17.556,"MEAN_ANOMALY":121.0914,"EPHEMERIS_TYPE":0,"CLASSIFICATION_TYPE":"U","NORAD_CAT_ID":39612,"ELEMENT_SET_NO":999,"REV_AT_EPOCH":4430,"BSTAR":0,"MEAN_MOTION_DOT":5.3e-7,"MEAN_MOTION_DDOT":0},{"OBJECT_NAME":"EXPRESS-AT2","OBJECT_ID":"2014-010B","EPOCH":"2026-04-26T18:58:03.398304","MEAN_MOTION":1.00272256,"ECCENTRICITY":4.28e-5,"INCLINATION":0.0103,"RA_OF_ASC_NODE":223.7214,"ARG_OF_PERICENTER":128.752,"MEAN_ANOMALY":202.8287,"EPHEMERIS_TYPE":0,"CLASSIFICATION_TYPE":"U","NORAD_CAT_ID":39613,"ELEMENT_SET_NO":999,"REV_AT_EPOCH":4398,"BSTAR":0,"MEAN_MOTION_DOT":0,"MEAN_MOTION_DDOT":0},{"OBJECT_NAME":"EUTELSAT 3B","OBJECT_ID":"2014-030A","EPOCH":"2026-04-26T20:25:40.503936","MEAN_MOTION":1.00272837,"ECCENTRICITY":0.0004017,"INCLINATION":0.0706,"RA_OF_ASC_NODE":19.124,"ARG_OF_PERICENTER":13.0669,"MEAN_ANOMALY":132.1714,"EPHEMERIS_TYPE":0,"CLASSIFICATION_TYPE":"U","NORAD_CAT_ID":39773,"ELEMENT_SET_NO":999,"REV_AT_EPOCH":4355,"BSTAR":0,"MEAN_MOTION_DOT":9.0e-8,"MEAN_MOTION_DDOT":0},{"OBJECT_NAME":"EUTELSAT 115 WEST B","OBJECT_ID":"2015-010B","EPOCH":"2026-04-26T13:01:21.587808","MEAN_MOTION":1.00269201,"ECCENTRICITY":1.05e-5,"INCLINATION":0.0102,"RA_OF_ASC_NODE":103.0684,"ARG_OF_PERICENTER":37.2721,"MEAN_ANOMALY":154.6514,"EPHEMERIS_TYPE":0,"CLASSIFICATION_TYPE":"U","NORAD_CAT_ID":40425,"ELEMENT_SET_NO":999,"REV_AT_EPOCH":4087,"BSTAR":0,"MEAN_MOTION_DOT":-3.7e-7,"MEAN_MOTION_DDOT":0},{"OBJECT_NAME":"EUTELSAT 8 WEST B","OBJECT_ID":"2015-039B","EPOCH":"2026-04-26T19:47:38.565024","MEAN_MOTION":1.00271801,"ECCENTRICITY":0.0003896,"INCLINATION":0.0692,"RA_OF_ASC_NODE":357.8741,"ARG_OF_PERICENTER":39.1798,"MEAN_ANOMALY":106.6815,"EPHEMERIS_TYPE":0,"CLASSIFICATION_TYPE":"U","NORAD_CAT_ID":40875,"ELEMENT_SET_NO":999,"REV_AT_EPOCH":3914,"BSTAR":0,"MEAN_MOTION_DOT":-7.7e-7,"MEAN_MOTION_DDOT":0},{"OBJECT_NAME":"EUTELSAT 9B","OBJECT_ID":"2016-005A","EPOCH":"2026-04-26T20:27:17.849088","MEAN_MOTION":1.00273391,"ECCENTRICITY":0.0003426,"INCLINATION":0.0757,"RA_OF_ASC_NODE":72.6504,"ARG_OF_PERICENTER":286.7913,"MEAN_ANOMALY":171.227,"EPHEMERIS_TYPE":0,"CLASSIFICATION_TYPE":"U","NORAD_CAT_ID":41310,"ELEMENT_SET_NO":999,"REV_AT_EPOCH":3760,"BSTAR":0,"MEAN_MOTION_DOT":5.1e-7,"MEAN_MOTION_DDOT":0}]
