EUTELSAT 174A           
1 28924U 05052A   26116.78516862  .00000001  00000+0  00000+0 0  9995
2 28924   4.0918  77.1405 0006440 318.7915 275.4962  1.00272763 51819
EUTELSAT 33F            
1 29270U 06032A   26116.85705660  .00000146  00000+0  00000+0 0  9993
2 29270   1.5307  82.7720 0003545 313.9157 159.8171  1.00274647 46799
EUTELSAT HOTBIRD 13C    
1 33459U 08065A   26116.84058986 -.00000291  00000+0  00000+0 0  9998
2 33459   2.8205  79.7701 0004222 321.2596  66.1342  1.00270030 46838
EUTELSAT 36B            
1 36101U 09065A   26116.78377920  .00000101  00000+0  00000+0 0  9990
2 36101   0.3630  79.8668 0005878 314.7365 152.8375  1.00269849 60192
EUTELSAT KA-SAT 9A      
1 37258U 10069A   26116.70970005  .00000049  00000+0  00000+0 0  9996
2 37258   0.0611 354.1089 0004027 144.1294 340.9833  1.00268489 43491
EUTELSAT 7 WEST A       
1 37816U 11051A   26116.82475191 -.00000072  00000+0  00000+0 0  9994
2 37816   0.0818  37.2135 0002591  64.3230  42.8801  1.00271871 53367
EUTELSAT 16A            
1 37836U 11057A   26116.85367659  .00000093  00000+0  00000+0 0  9996
2 37836   0.0540   7.6643 0005737  33.6845 136.8238  1.00270850  6825
EUTELSAT 21B            
1 38992U 12062B   26116.85480325  .00000118  00000+0  00000+0 0  9991
2 38992   0.0708 357.7297 0002924  37.6863 148.7636  1.00270459 49318
EUTELSAT 70B            
1 39020U 12069A   26116.79318300 -.00000055  00000+0  00000+0 0  9998
2 39020   0.0702  18.1397 0005084  14.6036 178.0764  1.00271522 48994
EUTELSAT 117 WEST A     
1 39122U 13012A   26116.72177675 -.00000024  00000+0  00000+0 0  9997
2 39122   0.0187 309.9930 0002564  73.1319 334.6352  1.00270773 47913
EUTELSAT 7B             
1 39163U 13022A   26116.85194324  .00000037  00000+0  00000+0 0  9990
2 39163   0.0759  21.7643 0005913 356.7862 149.9811  1.00271594 47433
EXPRESS-AT1             
1 39612U 14010A   26116.86190995  .00000053  00000+0  00000+0 0  9996
2 39612   0.1260  84.1545 0001813  17.5560 121.0914  1.00288960 44309
EXPRESS-AT2             
1 39613U 14010B   26116.79031711  .00000000  00000+0  00000+0 0  9991
2 39613   0.0103 223.7214 0000428 128.7520 202.8287  1.00272256 43986
EUTELSAT 3B             
1 39773U 14030A   26116.85116324  .00000009  00000+0  00000+0 0  9990
2 39773   0.0706  19.1240 0004017  13.0669 132.1714  1.00272837 43554
EUTELSAT 115 WEST B     
1 40425U 15010B   26116.54261097 -.00000037  00000+0  00000+0 0  9991
2 40425   0.0102 103.0684 0000105  37.2721 154.6514  1.00269201 40876
EUTELSAT 8 WEST B       
1 40875U 15039B   26116.82475191 -.00000077  00000+0  00000+0 0  9998
2 40875   0.0692 357.8741 0003896  39.1798 106.6815  1.00271801 39145
EUTELSAT 9B             
1 41310U 16005A   26116.85228992  .00000051  00000+0  00000+0 0  9996
2 41310   0.0757  72.6504 0003426 286.7913 171.2270  1.00273391 37607
